start=new Date('2023-06-28T00:00:00.000Z').valueOf();
sats=[{"ARG_OF_PERICENTER":"96.1467","OBJECT_NAME":"STARLINK-1557","MEAN_ELEMENT_THEORY":"SGP4","LAUNCH_DATE":"2020-08-07","TLE_LINE1":"1 46034U 20055H   23178.42685706  .00012420  00000-0  85107-3 0  9991","TIME_SYSTEM":"UTC","COUNTRY_CODE":"US","OBJECT_TYPE":"PAYLOAD","BSTAR":"0.00085107000000","RCS_SIZE":"LARGE","MEAN_ANOMALY":"263.9642","TLE_LINE2":"2 46034  53.0525 234.1220 0001058  96.1467 263.9642 15.06407131159724","GP_ID":"234583983","NORAD_CAT_ID":"46034","SEMIMAJOR_AXIS":"6925.327","MEAN_MOTION":"15.06407131","ECCENTRICITY":"0.00010580","MEAN_MOTION_DOT":"0.00012420","APOAPSIS":"547.924","ELEMENT_SET_NO":"999","PERIOD":"95.592","MEAN_MOTION_DDOT":"0.0000000000000","EPOCH":"2023-06-27T10:14:40.449984","CENTER_NAME":"EARTH","REV_AT_EPOCH":"15972","EPHEMERIS_TYPE":"0","SITE":"AFETR","OBJECT_ID":"2020-055H","REF_FRAME":"TEME","FILE":"3944084","RA_OF_ASC_NODE":"234.1220","DECAY_DATE":null,"INCLINATION":"53.0525","PERIAPSIS":"546.459","CLASSIFICATION_TYPE":"U"},{"SITE":"AFETR","OBJECT_ID":"2020-055J","REV_AT_EPOCH":"15972","EPHEMERIS_TYPE":"0","CENTER_NAME":"EARTH","MEAN_MOTION_DDOT":"0.0000000000000","EPOCH":"2023-06-27T10:25:17.497920","PERIOD":"95.592","ELEMENT_SET_NO":"999","CLASSIFICATION_TYPE":"U","INCLINATION":"53.0530","PERIAPSIS":"546.411","DECAY_DATE":null,"RA_OF_ASC_NODE":"234.0932","REF_FRAME":"TEME","FILE":"3944084","MEAN_ANOMALY":"261.4512","RCS_SIZE":"LARGE","OBJECT_TYPE":"PAYLOAD","BSTAR":"0.00103550000000","COUNTRY_CODE":"US","TLE_LINE1":"1 46035U 20055J   23178.43423030  .00015178  00000-0  10355-2 0  9998","TIME_SYSTEM":"UTC","LAUNCH_DATE":"2020-08-07","MEAN_ELEMENT_THEORY":"SGP4","OBJECT_NAME":"STARLINK-1558","ARG_OF_PERICENTER":"98.6606","APOAPSIS":"547.990","MEAN_MOTION_DOT":"0.00015178","MEAN_MOTION":"15.06404152","ECCENTRICITY":"0.00011400","GP_ID":"234583984","NORAD_CAT_ID":"46035","SEMIMAJOR_AXIS":"6925.336","TLE_LINE2":"2 46035  53.0530 234.0932 0001140  98.6606 261.4512 15.06404152159723"},{"RCS_SIZE":"LARGE","MEAN_ANOMALY":"278.1962","BSTAR":"0.00054212000000","OBJECT_TYPE":"PAYLOAD","COUNTRY_CODE":"US","TIME_SYSTEM":"UTC","TLE_LINE1":"1 46036U 20055K   23178.41948803  .00007806  00000-0  54212-3 0  9997","LAUNCH_DATE":"2020-08-07","MEAN_ELEMENT_THEORY":"SGP4","OBJECT_NAME":"STARLINK-1560","ARG_OF_PERICENTER":"81.9155","APOAPSIS":"547.937","MEAN_MOTION_DOT":"0.00007806","ECCENTRICITY":"0.00011240","MEAN_MOTION":"15.06418009","SEMIMAJOR_AXIS":"6925.293","GP_ID":"234583985","NORAD_CAT_ID":"46036","TLE_LINE2":"2 46036  53.0536 234.1579 0001124  81.9155 278.1962 15.06418009159724","OBJECT_ID":"2020-055K","SITE":"AFETR","EPHEMERIS_TYPE":"0","REV_AT_EPOCH":"15972","CENTER_NAME":"EARTH","EPOCH":"2023-06-27T10:04:03.765792","MEAN_MOTION_DDOT":"0.0000000000000","ELEMENT_SET_NO":"999","PERIOD":"95.591","CLASSIFICATION_TYPE":"U","INCLINATION":"53.0536","PERIAPSIS":"546.380","DECAY_DATE":null,"RA_OF_ASC_NODE":"234.1579","FILE":"3944084","REF_FRAME":"TEME"},{"ELEMENT_SET_NO":"999","PERIOD":"95.592","MEAN_MOTION_DDOT":"0.0000000000000","EPOCH":"2023-06-27T09:58:44.908320","CENTER_NAME":"EARTH","REV_AT_EPOCH":"15972","EPHEMERIS_TYPE":"0","SITE":"AFETR","OBJECT_ID":"2020-055L","REF_FRAME":"TEME","FILE":"3944417","RA_OF_ASC_NODE":"234.1711","DECAY_DATE":null,"INCLINATION":"53.0518","PERIAPSIS":"546.491","CLASSIFICATION_TYPE":"U","OBJECT_NAME":"STARLINK-1565","ARG_OF_PERICENTER":"89.6490","MEAN_ELEMENT_THEORY":"SGP4","LAUNCH_DATE":"2020-08-07","TLE_LINE1":"1 46037U 20055L   23178.41579755  .00013860  00000-0  94747-3 0  9998","TIME_SYSTEM":"UTC","COUNTRY_CODE":"US","OBJECT_TYPE":"PAYLOAD","BSTAR":"0.00094747000000","MEAN_ANOMALY":"270.4617","RCS_SIZE":"LARGE","TLE_LINE2":"2 46037  53.0518 234.1711 0001033  89.6490 270.4617 15.06402367159721","NORAD_CAT_ID":"46037","GP_ID":"234592691","SEMIMAJOR_AXIS":"6925.341","MEAN_MOTION":"15.06402367","ECCENTRICITY":"0.00010330","MEAN_MOTION_DOT":"0.00013860","APOAPSIS":"547.922"},{"LAUNCH_DATE":"2020-08-07","ARG_OF_PERICENTER":"93.6322","OBJECT_NAME":"STARLINK-1567","MEAN_ELEMENT_THEORY":"SGP4","OBJECT_TYPE":"PAYLOAD","BSTAR":"0.00095583000000","RCS_SIZE":"LARGE","MEAN_ANOMALY":"266.4792","TLE_LINE1":"1 46038U 20055M   23178.43054515  .00013988  00000-0  95583-3 0  9993","TIME_SYSTEM":"UTC","COUNTRY_CODE":"US","MEAN_MOTION":"15.06411193","ECCENTRICITY":"0.00010980","TLE_LINE2":"2 46038  53.0526 234.1098 0001098  93.6322 266.4792 15.06411193159725","NORAD_CAT_ID":"46038","GP_ID":"234584836","SEMIMAJOR_AXIS":"6925.314","APOAPSIS":"547.940","MEAN_MOTION_DOT":"0.00013988","PERIOD":"95.591","ELEMENT_SET_NO":"999","REV_AT_EPOCH":"15972","EPHEMERIS_TYPE":"0","SITE":"AFETR","OBJECT_ID":"2020-055M","MEAN_MOTION_DDOT":"0.0000000000000","EPOCH":"2023-06-27T10:19:59.100960","CENTER_NAME":"EARTH","REF_FRAME":"TEME","FILE":"3944103","INCLINATION":"53.0526","PERIAPSIS":"546.419","CLASSIFICATION_TYPE":"U","RA_OF_ASC_NODE":"234.1098","DECAY_DATE":null},{"MEAN_MOTION_DOT":"0.00009436","APOAPSIS":"548.062","GP_ID":"234584367","NORAD_CAT_ID":"46039","SEMIMAJOR_AXIS":"6925.358","TLE_LINE2":"2 46039  53.0541 234.0788 0001211  70.5189 289.5931 15.06396798159724","MEAN_MOTION":"15.06396798","ECCENTRICITY":"0.00012110","COUNTRY_CODE":"US","TLE_LINE1":"1 46039U 20055N   23178.43791968  .00009436  00000-0  65156-3 0  9990","TIME_SYSTEM":"UTC","RCS_SIZE":"LARGE","MEAN_ANOMALY":"289.5931","OBJECT_TYPE":"PAYLOAD","BSTAR":"0.00065156000000","MEAN_ELEMENT_THEORY":"SGP4","ARG_OF_PERICENTER":"70.5189","OBJECT_NAME":"STARLINK-1569","LAUNCH_DATE":"2020-08-07","DECAY_DATE":null,"RA_OF_ASC_NODE":"234.0788","CLASSIFICATION_TYPE":"U","INCLINATION":"53.0541","PERIAPSIS":"546.385","REF_FRAME":"TEME","FILE":"3944105","CENTER_NAME":"EARTH","MEAN_MOTION_DDOT":"0.0000000000000","EPOCH":"2023-06-27T10:30:36.260352","SITE":"AFETR","OBJECT_ID":"2020-055N","REV_AT_EPOCH":"15972","EPHEMERIS_TYPE":"0","ELEMENT_SET_NO":"999","PERIOD":"95.592"},{"INCLINATION":"53.0525","PERIAPSIS":"546.471","CLASSIFICATION_TYPE":"U","RA_OF_ASC_NODE":"233.9420","DECAY_DATE":null,"FILE":"3944045","REF_FRAME":"TEME","EPHEMERIS_TYPE":"0","REV_AT_EPOCH":"15973","OBJECT_ID":"2020-055P","SITE":"AFETR","EPOCH":"2023-06-27T11:13:03.340128","MEAN_MOTION_DDOT":"0.0000000000000","CENTER_NAME":"EARTH","ELEMENT_SET_NO":"999","PERIOD":"95.592","APOAPSIS":"547.919","MEAN_MOTION_DOT":"0.00013887","ECCENTRICITY":"0.00010450","MEAN_MOTION":"15.06405991","TLE_LINE2":"2 46040  53.0525 233.9420 0001045  82.7059 277.4048 15.06405991159737","SEMIMAJOR_AXIS":"6925.330","NORAD_CAT_ID":"46040","GP_ID":"234583471","BSTAR":"0.00094918000000","OBJECT_TYPE":"PAYLOAD","RCS_SIZE":"LARGE","MEAN_ANOMALY":"277.4048","TIME_SYSTEM":"UTC","TLE_LINE1":"1 46040U 20055P   23178.46739977  .00013887  00000-0  94918-3 0  9990","COUNTRY_CODE":"US","LAUNCH_DATE":"2020-08-07","ARG_OF_PERICENTER":"82.7059","OBJECT_NAME":"STARLINK-1576","MEAN_ELEMENT_THEORY":"SGP4"},{"ARG_OF_PERICENTER":"101.0948","OBJECT_NAME":"STARLINK-1580","MEAN_ELEMENT_THEORY":"SGP4","LAUNCH_DATE":"2020-08-07","TIME_SYSTEM":"UTC","TLE_LINE1":"1 46041U 20055Q   23178.41212492  .00009385  00000-0  64803-3 0  9992","COUNTRY_CODE":"US","BSTAR":"0.00064803000000","OBJECT_TYPE":"PAYLOAD","MEAN_ANOMALY":"259.0183","RCS_SIZE":"LARGE","TLE_LINE2":"2 46041  53.0521 234.2794 0001266 101.0948 259.0183 15.06405415159725","SEMIMAJOR_AXIS":"6925.332","NORAD_CAT_ID":"46041","GP_ID":"234582967","ECCENTRICITY":"0.00012660","MEAN_MOTION":"15.06405415","MEAN_MOTION_DOT":"0.00009385","APOAPSIS":"548.074","PERIOD":"95.592","ELEMENT_SET_NO":"999","EPOCH":"2023-06-27T09:53:27.593088","MEAN_MOTION_DDOT":"0.0000000000000","CENTER_NAME":"EARTH","EPHEMERIS_TYPE":"0","REV_AT_EPOCH":"15972","OBJECT_ID":"2020-055Q","SITE":"AFETR","FILE":"3944045","REF_FRAME":"TEME","RA_OF_ASC_NODE":"234.2794","DECAY_DATE":null,"PERIAPSIS":"546.320","INCLINATION":"53.0521","CLASSIFICATION_TYPE":"U"},{"ELEMENT_SET_NO":"999","PERIOD":"95.592","EPHEMERIS_TYPE":"0","REV_AT_EPOCH":"15973","OBJECT_ID":"2020-055R","SITE":"AFETR","EPOCH":"2023-06-27T10:51:49.730688","MEAN_MOTION_DDOT":"0.0000000000000","CENTER_NAME":"EARTH","FILE":"3944114","REF_FRAME":"TEME","INCLINATION":"53.0536","PERIAPSIS":"546.438","CLASSIFICATION_TYPE":"U","RA_OF_ASC_NODE":"234.0082","DECAY_DATE":null,"LAUNCH_DATE":"2020-08-07","ARG_OF_PERICENTER":"85.8633","OBJECT_NAME":"STARLINK-1581","MEAN_ELEMENT_THEORY":"SGP4","BSTAR":"0.00090461000000","OBJECT_TYPE":"PAYLOAD","MEAN_ANOMALY":"274.2482","RCS_SIZE":"LARGE","TIME_SYSTEM":"UTC","TLE_LINE1":"1 46042U 20055R   23178.45265892  .00013219  00000-0  90461-3 0  9999","COUNTRY_CODE":"US","ECCENTRICITY":"0.00011090","MEAN_MOTION":"15.06402410","TLE_LINE2":"2 46042  53.0536 234.0082 0001109  85.8633 274.2482 15.06402410159730","SEMIMAJOR_AXIS":"6925.341","NORAD_CAT_ID":"46042","GP_ID":"234584351","APOAPSIS":"547.974","MEAN_MOTION_DOT":"0.00013219"},{"OBJECT_TYPE":"PAYLOAD","BSTAR":"0.00097118000000","MEAN_ANOMALY":"298.7833","RCS_SIZE":"LARGE","TLE_LINE1":"1 46043U 20055S   23178.44528974  .00014207  00000-0  97118-3 0  9996","TIME_SYSTEM":"UTC","COUNTRY_CODE":"US","LAUNCH_DATE":"2020-08-07","OBJECT_NAME":"STARLINK-1582","ARG_OF_PERICENTER":"61.3300","MEAN_ELEMENT_THEORY":"SGP4","APOAPSIS":"548.259","MEAN_MOTION_DOT":"0.00014207","MEAN_MOTION":"15.06383677","ECCENTRICITY":"0.00014380","TLE_LINE2":"2 46043  53.0533 234.0434 0001438  61.3300 298.7833 15.06383677159727","NORAD_CAT_ID":"46043","GP_ID":"234584850","SEMIMAJOR_AXIS":"6925.399","REV_AT_EPOCH":"15972","EPHEMERIS_TYPE":"0","SITE":"AFETR","OBJECT_ID":"2020-055S","MEAN_MOTION_DDOT":"0.0000000000000","EPOCH":"2023-06-27T10:41:13.033536","CENTER_NAME":"EARTH","ELEMENT_SET_NO":"999","PERIOD":"95.593","PERIAPSIS":"546.268","INCLINATION":"53.0533","CLASSIFICATION_TYPE":"U","RA_OF_ASC_NODE":"234.0434","DECAY_DATE":null,"REF_FRAME":"TEME","FILE":"3944114"}];
